[{"OBJECT_NAME":"KUIPER-00151","OBJECT_ID":"2025-217K","EPOCH":"2026-03-09T07:29:03.997248","MEAN_MOTION":14.79857221,"ECCENTRICITY":9.771e-5,"INCLINATION":51.9032,"RA_OF_ASC_NODE":44.7716,"ARG_OF_PERICENTER":55.0617,"MEAN_ANOMALY":305.0437,"EPHEMERIS_TYPE":0,"CLASSIFICATION_TYPE":"U","NORAD_CAT_ID":65771,"ELEMENT_SET_NO":999,"REV_AT_EPOCH":2482,"BSTAR":-0.0010970142,"MEAN_MOTION_DOT":-8.558e-5,"MEAN_MOTION_DDOT":0},{"OBJECT_NAME":"CZ-6A DEB","OBJECT_ID":"2022-151PC","EPOCH":"2026-03-09T15:45:06.922368","MEAN_MOTION":14.63316875,"ECCENTRICITY":0.00785692,"INCLINATION":98.6173,"RA_OF_ASC_NODE":122.011,"ARG_OF_PERICENTER":249.2962,"MEAN_ANOMALY":109.9804,"EPHEMERIS_TYPE":0,"CLASSIFICATION_TYPE":"U","NORAD_CAT_ID":54626,"ELEMENT_SET_NO":999,"REV_AT_EPOCH":17422,"BSTAR":0.0017543737,"MEAN_MOTION_DOT":9.423e-5,"MEAN_MOTION_DDOT":0}]
